{
  "type": "FeatureCollection",
  "features": [
    {
      "type": "Feature",
      "properties": {
        "norad_id": 44334,
        "name": "EUTELSAT 7C",
        "group": "eutelsat",
        "lat": -0.01931372810936903,
        "lon": 21.367030511596187,
        "alt_km": 35792.782879180326,
        "timestamp": "2025-12-21T18:54:58.164831+00:00",
        "meta_object_name": "EUTELSAT 7C",
        "meta_object_id": "2019-034B",
        "meta_epoch": "2025-12-21T06:43:38.847936",
        "meta_mean_motion": 1.00275605,
        "meta_eccentricity": 0.00032954,
        "meta_inclination": 0.0735,
        "meta_ra_of_asc_node": 179.9095,
        "meta_arg_of_pericenter": 77.2937,
        "meta_mean_anomaly": 300.8021,
        "meta_ephemeris_type": 0,
        "meta_classification_type": "U",
        "meta_norad_cat_id": 44334,
        "meta_element_set_no": 999,
        "meta_rev_at_epoch": 505,
        "meta_bstar": 0,
        "meta_mean_motion_dot": 7.2e-07,
        "meta_mean_motion_ddot": 0,
        "tle_line1": "1 44334U 19034B   25355.28031074  .00000072  00000+0  00000+0 0  9997",
        "tle_line2": "2 44334   0.0735 179.9095 0003295  77.2937 300.8021  1.00275605  5059"
      },
      "geometry": {
        "type": "Point",
        "coordinates": [
          21.367030511596187,
          -0.01931372810936903
        ]
      }
    },
    {
      "type": "Feature",
      "properties": {
        "norad_id": 44624,
        "name": "EUTELSAT 5 WEST B",
        "group": "eutelsat",
        "lat": 0.04064916963820419,
        "lon": 9.374871625265238,
        "alt_km": 35788.25777886185,
        "timestamp": "2025-12-21T18:54:58.164842+00:00",
        "meta_object_name": "EUTELSAT 5 WEST B",
        "meta_object_id": "2019-067A",
        "meta_epoch": "2025-12-21T09:44:56.694336",
        "meta_mean_motion": 1.00271339,
        "meta_eccentricity": 0.00030095,
        "meta_inclination": 0.0661,
        "meta_ra_of_asc_node": 336.7773,
        "meta_arg_of_pericenter": 293.2552,
        "meta_mean_anomaly": 321.4345,
        "meta_ephemeris_type": 0,
        "meta_classification_type": "U",
        "meta_norad_cat_id": 44624,
        "meta_element_set_no": 999,
        "meta_rev_at_epoch": 2265,
        "meta_bstar": 0,
        "meta_mean_motion_dot": -1.9e-07,
        "meta_mean_motion_ddot": 0,
        "tle_line1": "1 44624U 19067A   25355.40621174 -.00000019  00000+0  00000+0 0  9997",
        "tle_line2": "2 44624   0.0661 336.7773 0003009 293.2552 321.4345  1.00271339 22654"
      },
      "geometry": {
        "type": "Point",
        "coordinates": [
          9.374871625265238,
          0.04064916963820419
        ]
      }
    },
    {
      "type": "Feature",
      "properties": {
        "norad_id": 45027,
        "name": "EUTELSAT KONNECT",
        "group": "eutelsat",
        "lat": -0.05399914617187803,
        "lon": 21.555074719763105,
        "alt_km": 35787.64125222797,
        "timestamp": "2025-12-21T18:54:58.164853+00:00",
        "meta_object_name": "EUTELSAT KONNECT",
        "meta_object_id": "2020-005B",
        "meta_epoch": "2025-12-21T13:13:55.057152",
        "meta_mean_motion": 1.00270761,
        "meta_eccentricity": 0.00012931,
        "meta_inclination": 0.0694,
        "meta_ra_of_asc_node": 94.8041,
        "meta_arg_of_pericenter": 183.3013,
        "meta_mean_anomaly": 17.9476,
        "meta_ephemeris_type": 0,
        "meta_classification_type": "U",
        "meta_norad_cat_id": 45027,
        "meta_element_set_no": 999,
        "meta_rev_at_epoch": 2255,
        "meta_bstar": 0,
        "meta_mean_motion_dot": 7.2e-07,
        "meta_mean_motion_ddot": 0,
        "tle_line1": "1 45027U 20005B   25355.55133168  .00000072  00000+0  00000+0 0  9994",
        "tle_line2": "2 45027   0.0694  94.8041 0001293 183.3013  17.9476  1.00270761 22551"
      },
      "geometry": {
        "type": "Point",
        "coordinates": [
          21.555074719763105,
          -0.05399914617187803
        ]
      }
    },
    {
      "type": "Feature",
      "properties": {
        "norad_id": 49056,
        "name": "EUTELSAT QUANTUM",
        "group": "eutelsat",
        "lat": 0.025293637907695826,
        "lon": 62.06843910185045,
        "alt_km": 35797.06978193108,
        "timestamp": "2025-12-21T18:54:58.164864+00:00",
        "meta_object_name": "EUTELSAT QUANTUM",
        "meta_object_id": "2021-069B",
        "meta_epoch": "2025-12-21T09:59:47.771232",
        "meta_mean_motion": 1.00272395,
        "meta_eccentricity": 0.00033477,
        "meta_inclination": 0.0212,
        "meta_ra_of_asc_node": 40.4204,
        "meta_arg_of_pericenter": 239.54,
        "meta_mean_anomaly": 7.9319,
        "meta_ephemeris_type": 0,
        "meta_classification_type": "U",
        "meta_norad_cat_id": 49056,
        "meta_element_set_no": 999,
        "meta_rev_at_epoch": 1614,
        "meta_bstar": 0,
        "meta_mean_motion_dot": 1.48e-06,
        "meta_mean_motion_ddot": 0,
        "tle_line1": "1 49056U 21069B   25355.41652513  .00000148  00000+0  00000+0 0  9990",
        "tle_line2": "2 49056   0.0212  40.4204 0003347 239.5400   7.9319  1.00272395 16145"
      },
      "geometry": {
        "type": "Point",
        "coordinates": [
          62.06843910185045,
          0.025293637907695826
        ]
      }
    },
    {
      "type": "Feature",
      "properties": {
        "norad_id": 53765,
        "name": "EUTELSAT KONNECT VHTS",
        "group": "eutelsat",
        "lat": -0.04944601554346995,
        "lon": 17.094547298431344,
        "alt_km": 35795.23161909256,
        "timestamp": "2025-12-21T18:54:58.164876+00:00",
        "meta_object_name": "EUTELSAT KONNECT VHTS",
        "meta_object_id": "2022-110A",
        "meta_epoch": "2025-12-21T13:12:40.176000",
        "meta_mean_motion": 1.00270894,
        "meta_eccentricity": 0.0002618,
        "meta_inclination": 0.0618,
        "meta_ra_of_asc_node": 99.3714,
        "meta_arg_of_pericenter": 133.7511,
        "meta_mean_anomaly": 58.1537,
        "meta_ephemeris_type": 0,
        "meta_classification_type": "U",
        "meta_norad_cat_id": 53765,
        "meta_element_set_no": 999,
        "meta_rev_at_epoch": 504,
        "meta_bstar": 0,
        "meta_mean_motion_dot": 4e-07,
        "meta_mean_motion_ddot": 0,
        "tle_line1": "1 53765U 22110A   25355.55046500  .00000040  00000+0  00000+0 0  9999",
        "tle_line2": "2 53765   0.0618  99.3714 0002618 133.7511  58.1537  1.00270894  5043"
      },
      "geometry": {
        "type": "Point",
        "coordinates": [
          17.094547298431344,
          -0.04944601554346995
        ]
      }
    },
    {
      "type": "Feature",
      "properties": {
        "norad_id": 54048,
        "name": "EUTELSAT HOTBIRD 13F",
        "group": "eutelsat",
        "lat": 0.05798552993947676,
        "lon": 27.336856978854698,
        "alt_km": 35777.34934737555,
        "timestamp": "2025-12-21T18:54:58.164888+00:00",
        "meta_object_name": "EUTELSAT HOTBIRD 13F",
        "meta_object_id": "2022-134A",
        "meta_epoch": "2025-12-21T06:42:50.848416",
        "meta_mean_motion": 1.00269817,
        "meta_eccentricity": 0.00023327,
        "meta_inclination": 0.052,
        "meta_ra_of_asc_node": 291.9077,
        "meta_arg_of_pericenter": 75.9758,
        "meta_mean_anomaly": 195.9245,
        "meta_ephemeris_type": 0,
        "meta_classification_type": "U",
        "meta_norad_cat_id": 54048,
        "meta_element_set_no": 999,
        "meta_rev_at_epoch": 1159,
        "meta_bstar": 0,
        "meta_mean_motion_dot": 1.1e-06,
        "meta_mean_motion_ddot": 0,
        "tle_line1": "1 54048U 22134A   25355.27975519  .00000110  00000+0  00000+0 0  9998",
        "tle_line2": "2 54048   0.0520 291.9077 0002332  75.9758 195.9245  1.00269817 11591"
      },
      "geometry": {
        "type": "Point",
        "coordinates": [
          27.336856978854698,
          0.05798552993947676
        ]
      }
    },
    {
      "type": "Feature",
      "properties": {
        "norad_id": 54225,
        "name": "EUTELSAT HOTBIRD 13G",
        "group": "eutelsat",
        "lat": 0.03216584511775468,
        "lon": 27.31676342694812,
        "alt_km": 35793.09351156939,
        "timestamp": "2025-12-21T18:54:58.164899+00:00",
        "meta_object_name": "EUTELSAT HOTBIRD 13G",
        "meta_object_id": "2022-146A",
        "meta_epoch": "2025-12-21T08:07:28.528896",
        "meta_mean_motion": 1.00270673,
        "meta_eccentricity": 0.00019382,
        "meta_inclination": 0.053,
        "meta_ra_of_asc_node": 228.376,
        "meta_arg_of_pericenter": 305.0726,
        "meta_mean_anomaly": 51.5735,
        "meta_ephemeris_type": 0,
        "meta_classification_type": "U",
        "meta_norad_cat_id": 54225,
        "meta_element_set_no": 999,
        "meta_rev_at_epoch": 568,
        "meta_bstar": 0,
        "meta_mean_motion_dot": 1.1e-06,
        "meta_mean_motion_ddot": 0,
        "tle_line1": "1 54225U 22146A   25355.33852464  .00000110  00000+0  00000+0 0  9998",
        "tle_line2": "2 54225   0.0530 228.3760 0001938 305.0726  51.5735  1.00270673  5681"
      },
      "geometry": {
        "type": "Point",
        "coordinates": [
          27.31676342694812,
          0.03216584511775468
        ]
      }
    }
  ]
}